{
    "links": {
        "self": "http://www.neowsapp.com/rest/v1/neo/3985565?api_key=iIulBulltgU6a56xZRHN4H3l9WmuAYTsLGpBGhQ2"
    },
    "id": "3985565",
    "neo_reference_id": "3985565",
    "name": "(2020 AP2)",
    "designation": "2020 AP2",
    "nasa_jpl_url": "http://ssd.jpl.nasa.gov/sbdb.cgi?sstr=3985565",
    "absolute_magnitude_h": 24.796,
    "estimated_diameter": {
        "kilometers": {
            "estimated_diameter_min": 0.0291981259,
            "estimated_diameter_max": 0.0652889943
        },
        "meters": {
            "estimated_diameter_min": 29.1981258817,
            "estimated_diameter_max": 65.288994287
        },
        "miles": {
            "estimated_diameter_min": 0.0181428687,
            "estimated_diameter_max": 0.0405686877
        },
        "feet": {
            "estimated_diameter_min": 95.7943793176,
            "estimated_diameter_max": 214.2027440165
        }
    },
    "is_potentially_hazardous_asteroid": false,
    "close_approach_data": [
        {
            "close_approach_date": "2019-07-07",
            "close_approach_date_full": "2019-Jul-07 16:14",
            "epoch_date_close_approach": 1562516040000,
            "relative_velocity": {
                "kilometers_per_second": "14.6159304447",
                "kilometers_per_hour": "52617.3496009567",
                "miles_per_hour": "32694.3748117722"
            },
            "miss_distance": {
                "astronomical": "0.3748734837",
                "lunar": "145.8257851593",
                "kilometers": "56080274.680999719",
                "miles": "34846666.8253613622"
            },
            "orbiting_body": "Earth"
        },
        {
            "close_approach_date": "2020-01-03",
            "close_approach_date_full": "2020-Jan-03 13:29",
            "epoch_date_close_approach": 1578058140000,
            "relative_velocity": {
                "kilometers_per_second": "11.4053747772",
                "kilometers_per_hour": "41059.349198055",
                "miles_per_hour": "25512.6828392026"
            },
            "miss_distance": {
                "astronomical": "0.0989748309",
                "lunar": "38.5012092201",
                "kilometers": "14806423.886250183",
                "miles": "9200285.1800232054"
            },
            "orbiting_body": "Earth"
        },
        {
            "close_approach_date": "2020-07-01",
            "close_approach_date_full": "2020-Jul-01 23:53",
            "epoch_date_close_approach": 1593647580000,
            "relative_velocity": {
                "kilometers_per_second": "14.8625308611",
                "kilometers_per_hour": "53505.1110997818",
                "miles_per_hour": "33245.9952830839"
            },
            "miss_distance": {
                "astronomical": "0.3845690643",
                "lunar": "149.5973660127",
                "kilometers": "57530712.887173041",
                "miles": "35747927.3346723258"
            },
            "orbiting_body": "Earth"
        }
    ],
    "orbital_data": {
        "orbit_id": "2",
        "orbit_determination_date": "2020-01-14 05:06:36",
        "first_observation_date": "2020-01-05",
        "last_observation_date": "2020-01-07",
        "data_arc_in_days": 2,
        "observations_used": 21,
        "orbit_uncertainty": "8",
        "minimum_orbit_intersection": ".071192",
        "jupiter_tisserand_invariant": "5.645",
        "epoch_osculation": "2458854.5",
        "eccentricity": ".002845740454640655",
        "semi_major_axis": "1.084332135145764",
        "inclination": "22.08354190961578",
        "ascending_node_longitude": "282.5771317485875",
        "orbital_period": "412.4220910585481",
        "perihelion_distance": "1.081246407322513",
        "perihelion_argument": "210.6187130011809",
        "aphelion_distance": "1.087417862969015",
        "perihelion_time": "2458887.828120255543",
        "mean_anomaly": "330.9081459210869",
        "mean_motion": ".8728921360056191",
        "equinox": "J2000",
        "orbit_class": {
            "orbit_class_type": "AMO",
            "orbit_class_description": "Near-Earth asteroid orbits similar to that of 1221 Amor",
            "orbit_class_range": "1.017 AU < q (perihelion) < 1.3 AU"
        }
    },
    "is_sentry_object": false
}